[{"OBJECT_NAME":"STARLINK-34544","OBJECT_ID":"2025-152Z","EPOCH":"2026-03-09T13:49:52.320000","MEAN_MOTION":15.05666765,"ECCENTRICITY":0.000241,"INCLINATION":97.6018,"RA_OF_ASC_NODE":285.4458,"ARG_OF_PERICENTER":90.4646,"MEAN_ANOMALY":269.6857,"EPHEMERIS_TYPE":0,"CLASSIFICATION_TYPE":"U","NORAD_CAT_ID":64865,"ELEMENT_SET_NO":999,"REV_AT_EPOCH":3540,"BSTAR":0.00022307,"MEAN_MOTION_DOT":3.161e-5,"MEAN_MOTION_DDOT":0},{"OBJECT_NAME":"SCOUT X-1 DEB","OBJECT_ID":"1961-004G","EPOCH":"2026-03-08T23:39:42.146208","MEAN_MOTION":14.27565327,"ECCENTRICITY":0.03815607,"INCLINATION":38.8221,"RA_OF_ASC_NODE":287.5839,"ARG_OF_PERICENTER":202.4156,"MEAN_ANOMALY":155.9515,"EPHEMERIS_TYPE":0,"CLASSIFICATION_TYPE":"U","NORAD_CAT_ID":4026,"ELEMENT_SET_NO":999,"REV_AT_EPOCH":11947,"BSTAR":0.0031867079,"MEAN_MOTION_DOT":0.00017371,"MEAN_MOTION_DDOT":0}]
